FLOCK 4G-27             
1 62641U 25009AJ  26068.75406453  .00012587  00000+0  47455-3 0  9991
2 62641  97.3976 150.8631 0000756 322.4974  37.6212 15.27199247 63710
STARLINK-36420          
1 67347U 26003P   26068.50054338  .00027877  00000+0  10183-2 0  9993
2 67347  43.0005 228.2450 0001566 255.7732 104.2945 15.27592799  8798
